GLOBALSTAR M045         
1 25676U 99019A   25066.43322444 -.00000064  00000+0  25691-3 0  9995
2 25676  51.9944 235.2899 0000991  79.8393 296.6969 12.27058461180907
GLOBALSTAR M019         
1 25677U 99019B   25066.26515284 -.00000218  00000+0 -13377-2 0  9992
2 25677  51.9910 358.9612 0001469  99.0085  58.3247 12.13872121172769
GLOBALSTAR M044         
1 25678U 99019C   25066.42480062 -.00000071  00000+0  17275-3 0  9994
2 25678  51.9970 297.1517 0005926 197.9574 333.1273 11.90246775159208
GLOBALSTAR M042         
1 25679U 99019D   25066.50563359 -.00000041  00000+0  47894-3 0  9992
2 25679  52.0042 338.0051 0003440  85.5998  85.5823 12.22079572172894
GLOBALSTAR M025         
1 25770U 99031A   25066.37310589 -.00000090  00000+0 -70073-3 0  9998
2 25770  51.9841  35.1281 0001507 345.1728 174.4417 11.22559371470278
GLOBALSTAR M049         
1 25771U 99031B   25066.42291376 -.00000012  00000+0  18610-2 0  9998
2 25771  51.9875  64.6614 0003121 199.8436 160.2240 11.12115942106103
GLOBALSTAR M047         
1 25772U 99031C   25066.41896121 -.00000077  00000+0 -20240-3 0  9992
2 25772  51.9827  71.3640 0016440  88.7922 271.4767 11.31926188459584
GLOBALSTAR M052         
1 25773U 99031D   25066.38758689 -.00000021  00000+0  15130-2 0  9994
2 25773  51.9854 174.8522 0002089  22.5223  21.5913 11.15058288467155
